CCSDS_OMM_VERS = 2.0
CREATION_DATE  = 
ORIGINATOR     = 

OBJECT_NAME    = STARLINK-36996
OBJECT_ID      = 2026-041AA
CENTER_NAME    = EARTH
REF_FRAME      = TEME
TIME_SYSTEM    = UTC
MEAN_ELEMENT_THEORY = SGP/SGP4

EPOCH          = 2026-03-25T00:08:03.592896
MEAN_MOTION    = 15.80936798
ECCENTRICITY   = .00008104
INCLINATION    = 53.1593
RA_OF_ASC_NODE = 345.1728
ARG_OF_PERICENTER = 96.4708
MEAN_ANOMALY   = 263.6407

EPHEMERIS_TYPE = 0
CLASSIFICATION_TYPE = U
NORAD_CAT_ID   = 68064
ELEMENT_SET_NO = 999
REV_AT_EPOCH   = 364
BSTAR          = .11849652E-2
MEAN_MOTION_DOT = .240512E-2
MEAN_MOTION_DDOT = 0

CCSDS_OMM_VERS = 2.0
CREATION_DATE  = 
ORIGINATOR     = 

OBJECT_NAME    = STARLINK-36836
OBJECT_ID      = 2026-041AB
CENTER_NAME    = EARTH
REF_FRAME      = TEME
TIME_SYSTEM    = UTC
MEAN_ELEMENT_THEORY = SGP/SGP4

EPOCH          = 2026-03-25T04:39:00.358560
MEAN_MOTION    = 15.81001064
ECCENTRICITY   = .00013014
INCLINATION    = 53.1589
RA_OF_ASC_NODE = 344.2116
ARG_OF_PERICENTER = 42.0148
MEAN_ANOMALY   = 318.0975

EPHEMERIS_TYPE = 0
CLASSIFICATION_TYPE = U
NORAD_CAT_ID   = 68065
ELEMENT_SET_NO = 999
REV_AT_EPOCH   = 367
BSTAR          = .19041787E-2
MEAN_MOTION_DOT = .395165E-2
MEAN_MOTION_DDOT = 0

CCSDS_OMM_VERS = 2.0
CREATION_DATE  = 
ORIGINATOR     = 

OBJECT_NAME    = STARLINK-36976
OBJECT_ID      = 2026-041AC
CENTER_NAME    = EARTH
REF_FRAME      = TEME
TIME_SYSTEM    = UTC
MEAN_ELEMENT_THEORY = SGP/SGP4

EPOCH          = 2026-03-25T09:56:12.892704
MEAN_MOTION    = 15.75310688
ECCENTRICITY   = .00017983
INCLINATION    = 53.1586
RA_OF_ASC_NODE = 343.4646
ARG_OF_PERICENTER = 45.5179
MEAN_ANOMALY   = 314.5989

EPHEMERIS_TYPE = 0
CLASSIFICATION_TYPE = U
NORAD_CAT_ID   = 68066
ELEMENT_SET_NO = 999
REV_AT_EPOCH   = 370
BSTAR          = .12960729E-2
MEAN_MOTION_DOT = .203523E-2
MEAN_MOTION_DDOT = 0

CCSDS_OMM_VERS = 2.0
CREATION_DATE  = 
ORIGINATOR     = 

OBJECT_NAME    = STARLINK-36929
OBJECT_ID      = 2026-041AD
CENTER_NAME    = EARTH
REF_FRAME      = TEME
TIME_SYSTEM    = UTC
MEAN_ELEMENT_THEORY = SGP/SGP4

EPOCH          = 2026-03-25T10:02:16.685088
MEAN_MOTION    = 15.75320566
ECCENTRICITY   = .00013697
INCLINATION    = 53.1589
RA_OF_ASC_NODE = 343.4928
ARG_OF_PERICENTER = 65.0221
MEAN_ANOMALY   = 295.0942

EPHEMERIS_TYPE = 0
CLASSIFICATION_TYPE = U
NORAD_CAT_ID   = 68067
ELEMENT_SET_NO = 999
REV_AT_EPOCH   = 370
BSTAR          = .1639472E-2
MEAN_MOTION_DOT = .259454E-2
MEAN_MOTION_DDOT = 0

CCSDS_OMM_VERS = 2.0
CREATION_DATE  = 
ORIGINATOR     = 

OBJECT_NAME    = STARLINK-36990
OBJECT_ID      = 2026-041AE
CENTER_NAME    = EARTH
REF_FRAME      = TEME
TIME_SYSTEM    = UTC
MEAN_ELEMENT_THEORY = SGP/SGP4

EPOCH          = 2026-03-25T10:40:59.517984
MEAN_MOTION    = 15.81014350
ECCENTRICITY   = .00014191
INCLINATION    = 53.1583
RA_OF_ASC_NODE = 342.9335
ARG_OF_PERICENTER = 47.0802
MEAN_ANOMALY   = 313.0339

EPHEMERIS_TYPE = 0
CLASSIFICATION_TYPE = U
NORAD_CAT_ID   = 68068
ELEMENT_SET_NO = 999
REV_AT_EPOCH   = 371
BSTAR          = .18712479E-2
MEAN_MOTION_DOT = .388238E-2
MEAN_MOTION_DDOT = 0

CCSDS_OMM_VERS = 2.0
CREATION_DATE  = 
ORIGINATOR     = 

OBJECT_NAME    = STARLINK-36766
OBJECT_ID      = 2026-042A
CENTER_NAME    = EARTH
REF_FRAME      = TEME
TIME_SYSTEM    = UTC
MEAN_ELEMENT_THEORY = SGP/SGP4

EPOCH          = 2026-03-25T13:32:36.635424
MEAN_MOTION    = 15.80999167
ECCENTRICITY   = .0000919
INCLINATION    = 53.1581
RA_OF_ASC_NODE = 115.2207
ARG_OF_PERICENTER = 99.2927
MEAN_ANOMALY   = 260.8200

EPHEMERIS_TYPE = 0
CLASSIFICATION_TYPE = U
NORAD_CAT_ID   = 68069
ELEMENT_SET_NO = 999
REV_AT_EPOCH   = 459
BSTAR          = .15105807E-2
MEAN_MOTION_DOT = .310204E-2
MEAN_MOTION_DDOT = 0

CCSDS_OMM_VERS = 2.0
CREATION_DATE  = 
ORIGINATOR     = 

OBJECT_NAME    = STARLINK-36823
OBJECT_ID      = 2026-042B
CENTER_NAME    = EARTH
REF_FRAME      = TEME
TIME_SYSTEM    = UTC
MEAN_ELEMENT_THEORY = SGP/SGP4

EPOCH          = 2026-03-25T13:31:31.880352
MEAN_MOTION    = 15.80948055
ECCENTRICITY   = .00009394
INCLINATION    = 53.1580
RA_OF_ASC_NODE = 115.2152
ARG_OF_PERICENTER = 107.7178
MEAN_ANOMALY   = 252.3948

EPHEMERIS_TYPE = 0
CLASSIFICATION_TYPE = U
NORAD_CAT_ID   = 68070
ELEMENT_SET_NO = 999
REV_AT_EPOCH   = 459
BSTAR          = .10254626E-2
MEAN_MOTION_DOT = .207344E-2
MEAN_MOTION_DDOT = 0

CCSDS_OMM_VERS = 2.0
CREATION_DATE  = 
ORIGINATOR     = 

OBJECT_NAME    = STARLINK-36970
OBJECT_ID      = 2026-042C
CENTER_NAME    = EARTH
REF_FRAME      = TEME
TIME_SYSTEM    = UTC
MEAN_ELEMENT_THEORY = SGP/SGP4

EPOCH          = 2026-03-24T13:12:48.423744
MEAN_MOTION    = 15.80860859
ECCENTRICITY   = .00013048
INCLINATION    = 53.1577
RA_OF_ASC_NODE = 120.2747
ARG_OF_PERICENTER = 131.7481
MEAN_ANOMALY   = 228.3653

EPHEMERIS_TYPE = 0
CLASSIFICATION_TYPE = U
NORAD_CAT_ID   = 68071
ELEMENT_SET_NO = 999
REV_AT_EPOCH   = 443
BSTAR          = -.37523046E-3
MEAN_MOTION_DOT = -.74086E-3
MEAN_MOTION_DDOT = 0

CCSDS_OMM_VERS = 2.0
CREATION_DATE  = 
ORIGINATOR     = 

OBJECT_NAME    = STARLINK-36972
OBJECT_ID      = 2026-042D
CENTER_NAME    = EARTH
REF_FRAME      = TEME
TIME_SYSTEM    = UTC
MEAN_ELEMENT_THEORY = SGP/SGP4

EPOCH          = 2026-03-25T13:30:27.130464
MEAN_MOTION    = 15.80979233
ECCENTRICITY   = .00014373
INCLINATION    = 53.1576
RA_OF_ASC_NODE = 115.2105
ARG_OF_PERICENTER = 72.5802
MEAN_ANOMALY   = 287.5378

EPHEMERIS_TYPE = 0
CLASSIFICATION_TYPE = U
NORAD_CAT_ID   = 68072
ELEMENT_SET_NO = 999
REV_AT_EPOCH   = 459
BSTAR          = .13930659E-2
MEAN_MOTION_DOT = .284903E-2
MEAN_MOTION_DDOT = 0

CCSDS_OMM_VERS = 2.0
CREATION_DATE  = 
ORIGINATOR     = 

OBJECT_NAME    = STARLINK-37074
OBJECT_ID      = 2026-042E
CENTER_NAME    = EARTH
REF_FRAME      = TEME
TIME_SYSTEM    = UTC
MEAN_ELEMENT_THEORY = SGP/SGP4

EPOCH          = 2026-03-25T13:28:17.365440
MEAN_MOTION    = 15.80967199
ECCENTRICITY   = .00011683
INCLINATION    = 53.1574
RA_OF_ASC_NODE = 115.2006
ARG_OF_PERICENTER = 161.8331
MEAN_ANOMALY   = 198.2734

EPHEMERIS_TYPE = 0
CLASSIFICATION_TYPE = U
NORAD_CAT_ID   = 68073
ELEMENT_SET_NO = 999
REV_AT_EPOCH   = 459
BSTAR          = .132937E-2
MEAN_MOTION_DOT = .27126E-2
MEAN_MOTION_DDOT = 0

CCSDS_OMM_VERS = 2.0
CREATION_DATE  = 
ORIGINATOR     = 

OBJECT_NAME    = STARLINK-37045
OBJECT_ID      = 2026-042F
CENTER_NAME    = EARTH
REF_FRAME      = TEME
TIME_SYSTEM    = UTC
MEAN_ELEMENT_THEORY = SGP/SGP4

EPOCH          = 2026-03-25T13:51:03.269088
MEAN_MOTION    = 15.75257179
ECCENTRICITY   = .00019011
INCLINATION    = 53.1592
RA_OF_ASC_NODE = 115.3045
ARG_OF_PERICENTER = 66.9575
MEAN_ANOMALY   = 293.1645

EPHEMERIS_TYPE = 0
CLASSIFICATION_TYPE = U
NORAD_CAT_ID   = 68074
ELEMENT_SET_NO = 999
REV_AT_EPOCH   = 459
BSTAR          = .6840352E-3
MEAN_MOTION_DOT = .10562E-2
MEAN_MOTION_DDOT = 0

CCSDS_OMM_VERS = 2.0
CREATION_DATE  = 
ORIGINATOR     = 

OBJECT_NAME    = STARLINK-37026
OBJECT_ID      = 2026-042G
CENTER_NAME    = EARTH
REF_FRAME      = TEME
TIME_SYSTEM    = UTC
MEAN_ELEMENT_THEORY = SGP/SGP4

EPOCH          = 2026-03-25T14:04:34.918464
MEAN_MOTION    = 15.75320493
ECCENTRICITY   = .00008583
INCLINATION    = 53.1574
RA_OF_ASC_NODE = 115.3673
ARG_OF_PERICENTER = 109.7384
MEAN_ANOMALY   = 250.3729

EPHEMERIS_TYPE = 0
CLASSIFICATION_TYPE = U
NORAD_CAT_ID   = 68075
ELEMENT_SET_NO = 999
REV_AT_EPOCH   = 459
BSTAR          = .13539639E-2
MEAN_MOTION_DOT = .212973E-2
MEAN_MOTION_DDOT = 0

