STARLINK-36996          
1 68064U 26041AA  26084.00559714  .00240512  00000+0  11850-2 0  9998
2 68064  53.1593 345.1728 0000810  96.4708 263.6407 15.80936798  3642
STARLINK-36836          
1 68065U 26041AB  26084.19375415  .00395165  00000+0  19042-2 0  9999
2 68065  53.1589 344.2116 0001301  42.0148 318.0975 15.81001064  3678
STARLINK-36976          
1 68066U 26041AC  26084.41403811  .00203523  00000+0  12961-2 0  9996
2 68066  53.1586 343.4646 0001798  45.5179 314.5989 15.75310688  3705
STARLINK-36929          
1 68067U 26041AD  26084.41824867  .00259454  00000+0  16395-2 0  9994
2 68067  53.1589 343.4928 0001369  65.0221 295.0942 15.75320566  3709
STARLINK-36990          
1 68068U 26041AE  26084.44513331  .00388238  00000+0  18712-2 0  9997
2 68068  53.1583 342.9335 0001419  47.0802 313.0339 15.81014350  3711
STARLINK-36766          
1 68069U 26042A   26084.56431291  .00310204  00000+0  15106-2 0  9998
2 68069  53.1581 115.2207 0000919  99.2927 260.8200 15.80999167  4590
STARLINK-36823          
1 68070U 26042B   26084.56356343  .00207344  00000+0  10255-2 0  9994
2 68070  53.1580 115.2152 0000939 107.7178 252.3948 15.80948055  4590
STARLINK-36970          
1 68071U 26042C   26083.55056046 -.00074086  00000+0 -37523-3 0  9995
2 68071  53.1577 120.2747 0001304 131.7481 228.3653 15.80860859  4438
STARLINK-36972          
1 68072U 26042D   26084.56281401  .00284903  00000+0  13931-2 0  9998
2 68072  53.1576 115.2105 0001437  72.5802 287.5378 15.80979233  4591
STARLINK-37074          
1 68073U 26042E   26084.56131210  .00271260  00000+0  13294-2 0  9995
2 68073  53.1574 115.2006 0001168 161.8331 198.2734 15.80967199  4592
STARLINK-37045          
1 68074U 26042F   26084.57712117  .00105620  00000+0  68404-3 0  9998
2 68074  53.1592 115.3045 0001901  66.9575 293.1645 15.75257179  4597
STARLINK-37026          
1 68075U 26042G   26084.58651526  .00212973  00000+0  13540-2 0  9996
2 68075  53.1574 115.3673 0000858 109.7384 250.3729 15.75320493  4597
